{
    "links": {
        "self": "http://www.neowsapp.com/rest/v1/neo/3989240?api_key=iIulBulltgU6a56xZRHN4H3l9WmuAYTsLGpBGhQ2"
    },
    "id": "3989240",
    "neo_reference_id": "3989240",
    "name": "(2020 BL10)",
    "designation": "2020 BL10",
    "nasa_jpl_url": "http://ssd.jpl.nasa.gov/sbdb.cgi?sstr=3989240",
    "absolute_magnitude_h": 24.976,
    "estimated_diameter": {
        "kilometers": {
            "estimated_diameter_min": 0.0268754025,
            "estimated_diameter_max": 0.0600952268
        },
        "meters": {
            "estimated_diameter_min": 26.8754024638,
            "estimated_diameter_max": 60.0952268316
        },
        "miles": {
            "estimated_diameter_min": 0.0166995957,
            "estimated_diameter_max": 0.0373414312
        },
        "feet": {
            "estimated_diameter_min": 88.1738954192,
            "estimated_diameter_max": 197.1628239983
        }
    },
    "is_potentially_hazardous_asteroid": false,
    "close_approach_data": [
        {
            "close_approach_date": "2020-02-06",
            "close_approach_date_full": "2020-Feb-06 02:27",
            "epoch_date_close_approach": 1580956020000,
            "relative_velocity": {
                "kilometers_per_second": "8.8263834713",
                "kilometers_per_hour": "31774.9804965778",
                "miles_per_hour": "19743.7371868875"
            },
            "miss_distance": {
                "astronomical": "0.0654314111",
                "lunar": "25.4528189179",
                "kilometers": "9788399.731654357",
                "miles": "6082229.5565178466"
            },
            "orbiting_body": "Earth"
        },
        {
            "close_approach_date": "2021-12-15",
            "close_approach_date_full": "2021-Dec-15 17:28",
            "epoch_date_close_approach": 1639589280000,
            "relative_velocity": {
                "kilometers_per_second": "3.1466809804",
                "kilometers_per_hour": "11328.0515294162",
                "miles_per_hour": "7038.810685042"
            },
            "miss_distance": {
                "astronomical": "1.9670367684",
                "lunar": "765.1773029076",
                "kilometers": "294264510.764323308",
                "miles": "182847488.2382573304"
            },
            "orbiting_body": "Juptr"
        }
    ],
    "orbital_data": {
        "orbit_id": "4",
        "orbit_determination_date": "2020-03-15 07:07:35",
        "first_observation_date": "2020-01-20",
        "last_observation_date": "2020-02-22",
        "data_arc_in_days": 33,
        "observations_used": 33,
        "orbit_uncertainty": "7",
        "minimum_orbit_intersection": ".0569103",
        "jupiter_tisserand_invariant": "3.453",
        "epoch_osculation": "2459000.5",
        "eccentricity": ".5255277728664857",
        "semi_major_axis": "2.195623441555708",
        "inclination": "11.45141215347379",
        "ascending_node_longitude": "130.4409497753659",
        "orbital_period": "1188.324948749044",
        "perihelion_distance": "1.041762344261488",
        "perihelion_argument": "3.646427692366127",
        "aphelion_distance": "3.349484538849928",
        "perihelion_time": "2458884.941314971269",
        "mean_anomaly": "35.00820769111765",
        "mean_motion": ".3029474390645201",
        "equinox": "J2000",
        "orbit_class": {
            "orbit_class_type": "AMO",
            "orbit_class_description": "Near-Earth asteroid orbits similar to that of 1221 Amor",
            "orbit_class_range": "1.017 AU < q (perihelion) < 1.3 AU"
        }
    },
    "is_sentry_object": false
}